NORAD_CAT_ID,OBJECT_NAME,OBJECT_TYPE,EPOCH,MEAN_MOTION,ECCENTRICITY,INCLINATION,RA_OF_ASC_NODE,ARG_OF_PERICENTER,MEAN_ANOMALY,BSTAR,MEAN_MOTION_DOT,MEAN_MOTION_DDOT,TLE_LINE0,TLE_LINE1,TLE_LINE2,SEMIMAJOR_AXIS,PERIOD,APOGEE,PERIGEE,DECAYED
55779.0,STARLINK-5817,PAYLOAD,2024-06-19 21:30:04,14.98327329,0.0002915,70.0003,347.1471,265.3852,94.6974,3.1644e-05,2.85e-06,0.0,0 STARLINK-5817,1 55779U 23028AQ  24171.89588678  .00000285  00000-0  31644-4 0  9999,2 55779  70.0003 347.1471 0002915 265.3852  94.6974 14.98327329 72994,6950.201,96.107,574.092,570.04,0.0
55779.0,STARLINK-5817,PAYLOAD,2024-06-20 13:31:25,14.98325635,0.0003002,70.0002,345.4638,267.5632,92.5184,0.0001055,1.166e-05,0.0,0 STARLINK-5817,1 55779U 23028AQ  24172.56348600  .00001166  00000-0  10550-3 0  9994,2 55779  70.0002 345.4638 0003002 267.5632  92.5184 14.98325635 73097,6950.206,96.107,574.158,569.985,0.0
55779.0,STARLINK-5817,PAYLOAD,2024-06-20 21:32:05,14.98332866,0.0002983,70.0003,344.6223,267.1981,92.8837,7.874e-06,1e-08,0.0,0 STARLINK-5817,1 55779U 23028AQ  24172.89728352  .00000001  00000-0  78740-5 0  9990,2 55779  70.0003 344.6223 0002983 267.1981  92.8837 14.98332866 73147,6950.184,96.107,574.122,569.976,0.0
55779.0,STARLINK-5817,PAYLOAD,2024-06-21 13:33:25,14.98330238,0.0003112,70.0001,342.9398,268.115,91.9653,2.5584e-05,2.12e-06,0.0,0 STARLINK-5817,1 55779U 23028AQ  24173.56488412  .00000212  00000-0  25584-4 0  9996,2 55779  70.0001 342.9398 0003112 268.1150  91.9653 14.98330238 73241,6950.192,96.107,574.22,569.894,0.0
55779.0,STARLINK-5817,PAYLOAD,2024-06-21 21:34:06,14.9833225,0.0003104,70.0001,342.0982,268.1923,91.888,4.4833e-05,4.42e-06,0.0,0 STARLINK-5817,1 55779U 23028AQ  24173.89868206  .00000442  00000-0  44833-4 0  9998,2 55779  70.0001 342.0982 0003104 268.1923  91.8880 14.98332250 73292,6950.186,96.107,574.208,569.894,0.0
55779.0,STARLINK-5817,PAYLOAD,2024-06-22 13:35:27,14.98329349,0.0003028,70.0004,340.4149,269.1313,90.9499,-3.0448e-06,-1.29e-06,0.0,0 STARLINK-5817,1 55779U 23028AQ  24174.56628506 -.00000129  00000-0 -30448-5 0  9992,2 55779  70.0004 340.4149 0003028 269.1313  90.9499 14.98329349 73393,6950.195,96.107,574.164,569.955,0.0
55779.0,STARLINK-5817,PAYLOAD,2024-06-22 21:36:07,14.98329709,0.0002975,70.0006,339.5742,266.5447,93.5372,1.0216e-05,2.9e-07,0.0,0 STARLINK-5817,1 55779U 23028AQ  24174.90008437  .00000029  00000-0  10216-4 0  9992,2 55779  70.0006 339.5742 0002975 266.5447  93.5372 14.98329709 73447,6950.194,96.107,574.126,569.991,0.0
55779.0,STARLINK-5817,PAYLOAD,2024-06-23 13:37:28,14.98325757,0.0003032,70.0004,337.8906,265.3966,94.6847,-4.9557e-05,-6.84e-06,0.0,0 STARLINK-5817,1 55779U 23028AQ  24175.56768815 -.00000684  00000-0 -49557-4 0  9997,2 55779  70.0004 337.8906 0003032 265.3966  94.6847 14.98325757 73545,6950.206,96.107,574.178,569.964,0.0
55779.0,STARLINK-5817,PAYLOAD,2024-06-23 20:02:00,14.98325625,0.0003034,70.0004,337.2172,265.2924,94.7889,-4.74e-05,-6.58e-06,0.0,0 STARLINK-5817,1 55779U 23028AQ  24175.83472880 -.00000658  00000-0 -47400-4 0  9997,2 55779  70.0004 337.2172 0003034 265.2924  94.7889 14.98325625 73584,6950.206,96.107,574.18,569.963,0.0
55779.0,STARLINK-5817,PAYLOAD,2024-06-24 12:03:20,14.98333822,0.0003262,70.0,335.5334,267.7192,92.3593,4.2143e-05,4.1e-06,0.0,0 STARLINK-5817,1 55779U 23028AQ  24176.50232110  .00000410  00000-0  42143-4 0  9995,2 55779  70.0000 335.5334 0003262 267.7192  92.3593 14.98333822 73683,6950.181,96.107,574.313,569.779,0.0
55779.0,STARLINK-5817,PAYLOAD,2024-06-24 13:39:28,14.98334965,0.0003233,70.0001,335.3648,267.2203,92.8586,5.8612e-05,6.06e-06,0.0,0 STARLINK-5817,1 55779U 23028AQ  24176.56907975  .00000606  00000-0  58612-4 0  9994,2 55779  70.0001 335.3648 0003233 267.2203  92.8586 14.98334965 73693,6950.178,96.107,574.29,569.796,0.0
55779.0,STARLINK-5817,PAYLOAD,2024-06-24 20:04:00,14.98339851,0.0003164,70.0002,334.6916,265.8974,94.1824,0.00011382,1.266e-05,0.0,0 STARLINK-5817,1 55779U 23028AQ  24176.83611400  .00001266  00000-0  11382-3 0  9994,2 55779  70.0002 334.6916 0003164 265.8974  94.1824 14.98339851 73730,6950.162,96.106,574.226,569.828,0.0
55779.0,STARLINK-5817,PAYLOAD,2024-06-25 12:05:21,14.98326765,0.0002936,70.0008,333.0091,261.4082,98.6744,7.0079e-05,7.43e-06,0.0,0 STARLINK-5817,1 55779U 23028AQ  24177.50372186  .00000743  00000-0  70079-4 0  9992,2 55779  70.0008 333.0091 0002936 261.4082  98.6744 14.98326765 73832,6950.203,96.107,574.108,570.027,0.0
55779.0,STARLINK-5817,PAYLOAD,2024-06-25 13:41:29,14.98326555,0.0002945,70.0007,332.8409,261.6844,98.3981,6.5928e-05,6.94e-06,0.0,0 STARLINK-5817,1 55779U 23028AQ  24177.57048220  .00000694  00000-0  65928-4 0  9990,2 55779  70.0007 332.8409 0002945 261.6844  98.3981 14.98326555 73847,6950.204,96.107,574.115,570.022,0.0
55779.0,STARLINK-5817,PAYLOAD,2024-06-25 20:06:01,14.98327318,0.000294,70.0009,332.1679,261.8388,98.2438,6.8231e-05,7.21e-06,0.0,0 STARLINK-5817,1 55779U 23028AQ  24177.83752204  .00000721  00000-0  68231-4 0  9994,2 55779  70.0009 332.1679 0002940 261.8388  98.2438 14.98327318 73889,6950.201,96.107,574.11,570.023,0.0
55779.0,STARLINK-5817,PAYLOAD,2024-06-26 12:07:22,14.98334476,0.0003048,70.0006,330.4831,271.0171,89.0639,-6.0113e-05,-8.1e-06,0.0,0 STARLINK-5817,1 55779U 23028AQ  24178.50512103 -.00000810  00000-0 -60113-4 0  9993,2 55779  70.0006 330.4831 0003048 271.0171  89.0639 14.98334476 73985,6950.179,96.107,574.162,569.926,0.0
55779.0,STARLINK-5817,PAYLOAD,2024-06-27 12:09:23,14.98330548,0.0003138,70.0004,327.9588,272.0692,88.0107,2.0043e-05,1.46e-06,0.0,0 STARLINK-5817,1 55779U 23028AQ  24179.50651941  .00000146  00000-0  20043-4 0  9996,2 55779  70.0004 327.9588 0003138 272.0692  88.0107 14.98330548 74135,6950.191,96.107,574.237,569.875,0.0
55779.0,STARLINK-5817,PAYLOAD,2024-06-27 20:10:03,14.98333431,0.0003156,70.0003,327.1165,270.0711,90.0086,4.9908e-05,5.03e-06,0.0,0 STARLINK-5817,1 55779U 23028AQ  24179.84031629  .00000503  00000-0  49908-4 0  9996,2 55779  70.0003 327.1165 0003156 270.0711  90.0086 14.98333431 74185,6950.182,96.107,574.241,569.854,0.0
55779.0,STARLINK-5817,PAYLOAD,2024-06-28 12:11:23,14.98332378,0.0003163,70.0004,325.4332,269.2189,90.8608,4.7985e-05,4.8e-06,0.0,0 STARLINK-5817,1 55779U 23028AQ  24180.50791648  .00000480  00000-0  47985-4 0  9992,2 55779  70.0004 325.4332 0003163 269.2189  90.8608 14.98332378 74288,6950.186,96.107,574.249,569.852,0.0
55779.0,STARLINK-5817,PAYLOAD,2024-06-28 13:47:32,14.98332769,0.0003153,70.0004,325.2649,269.3052,90.7746,5.0174e-05,5.06e-06,0.0,0 STARLINK-5817,1 55779U 23028AQ  24180.57467609  .00000506  00000-0  50174-4 0  9999,2 55779  70.0004 325.2649 0003153 269.3052  90.7746 14.98332769 74293,6950.184,96.107,574.241,569.858,0.0
55779.0,STARLINK-5817,PAYLOAD,2024-06-28 18:35:55,14.9834146,0.0002976,70.0006,324.7609,265.0979,94.9841,0.00012878,1.444e-05,0.0,0 STARLINK-5817,1 55779U 23028AQ  24180.77494748  .00001444  00000-0  12878-3 0  9995,2 55779  70.0006 324.7609 0002976 265.0979  94.9841 14.98341460 74322,6950.157,96.106,574.091,569.954,0.0
55779.0,STARLINK-5817,PAYLOAD,2024-06-29 02:36:36,14.98334414,0.0002857,70.0006,323.9179,266.4694,93.6138,8.9576e-05,9.76e-06,0.0,0 STARLINK-5817,1 55779U 23028AQ  24181.10875128  .00000976  00000-0  89576-4 0  9997,2 55779  70.0006 323.9179 0002857 266.4694  93.6138 14.98334414 74373,6950.179,96.107,574.03,570.059,0.0
55779.0,STARLINK-5817,PAYLOAD,2024-06-29 12:13:25,14.98326645,0.0002806,70.0014,322.9115,262.0353,98.0487,-2.1308e-05,-3.47e-06,0.0,0 STARLINK-5817,1 55779U 23028AQ  24181.50931981 -.00000347  00000-0 -21308-4 0  9994,2 55779  70.0014 322.9115 0002806 262.0353  98.0487 14.98326645 74439,6950.203,96.107,574.018,570.118,0.0
55779.0,STARLINK-5817,PAYLOAD,2024-06-29 15:25:41,14.98324296,0.0002896,70.0007,322.5729,265.2327,94.8502,-5.8949e-05,-7.96e-06,0.0,0 STARLINK-5817,1 55779U 23028AQ  24181.64284263 -.00000796  00000-0 -58949-4 0  9992,2 55779  70.0007 322.5729 0002896 265.2327  94.8502 14.98324296 74457,6950.211,96.107,574.088,570.063,0.0
55779.0,STARLINK-5817,PAYLOAD,2024-06-29 18:37:57,14.9832191,0.0002729,70.0016,322.2374,260.6139,99.4712,-4.366e-05,-6.14e-06,0.0,0 STARLINK-5817,1 55779U 23028AQ  24181.77636428 -.00000614  00000-0 -43660-4 0  9993,2 55779  70.0016 322.2374 0002729 260.6139  99.4712 14.98321910 74471,6950.218,96.108,573.98,570.186,0.0
55779.0,STARLINK-5817,PAYLOAD,2024-06-30 13:51:34,14.98329356,0.0002827,70.0009,320.2167,267.1312,92.9523,-5.4068e-05,-7.38e-06,0.0,0 STARLINK-5817,1 55779U 23028AQ  24182.57748108 -.00000738  00000-0 -54068-4 0  9992,2 55779  70.0009 320.2167 0002827 267.1312  92.9523 14.98329356 74598,6950.195,96.107,574.025,570.095,0.0
55779.0,STARLINK-5817,PAYLOAD,2024-06-30 18:39:58,14.98335485,0.0002905,70.0007,319.7115,264.3542,95.7286,-3.4793e-05,-5.08e-06,0.0,0 STARLINK-5817,1 55779U 23028AQ  24182.77775629 -.00000508  00000-0 -34793-4 0  9990,2 55779  70.0007 319.7115 0002905 264.3542  95.7286 14.98335485 74624,6950.176,96.107,574.06,570.022,0.0
55779.0,STARLINK-5817,PAYLOAD,2024-07-01 13:53:35,14.98334787,0.0002778,70.0007,317.6912,271.8315,88.2526,-0.00010021,-1.289e-05,0.0,0 STARLINK-5817,1 55779U 23028AQ  24183.57887894 -.00001289  00000-0 -10021-3 0  9991,2 55779  70.0007 317.6912 0002778 271.8315  88.2526 14.98334787 74746,6950.178,96.107,573.974,570.112,0.0
55779.0,STARLINK-5817,PAYLOAD,2024-07-01 18:41:59,14.98329664,0.0002922,70.0005,317.1848,266.4941,93.5884,0.0001239,1.386e-05,0.0,0 STARLINK-5817,1 55779U 23028AQ  24183.77915714  .00001386  00000-0  12390-3 0  9993,2 55779  70.0005 317.1848 0002922 266.4941  93.5884 14.98329664 74770,6950.194,96.107,574.09,570.028,0.0
55779.0,STARLINK-5817,PAYLOAD,2024-07-02 13:55:36,14.98326737,0.0002953,70.0006,315.1647,268.7659,91.3162,6.5094e-05,6.84e-06,0.0,0 STARLINK-5817,1 55779U 23028AQ  24184.58028107  .00000684  00000-0  65094-4 0  9994,2 55779  70.0006 315.1647 0002953 268.7659  91.3162 14.98326737 74897,6950.203,96.107,574.12,570.016,0.0
